{"type": "FeatureCollection", "features": [ {"type": "Feature", "properties": {"norad_id": 40697, "name": "SENTINEL-2A", "group": "resource", "lat": -79.44170698646609, "lon": 113.00922407647079, "alt_km": 797.1120875132592, "timestamp": "2025-12-12T11:38:31.073456+00:00", "meta": {"OBJECT_NAME": "SENTINEL-2A", "OBJECT_ID": "2015-028A", "EPOCH": "2025-12-12T05:19:11.791200", "MEAN_MOTION": 14.30813208, "ECCENTRICITY": 0.0001087, "INCLINATION": 98.5686, "RA_OF_ASC_NODE": 58.761, "ARG_OF_PERICENTER": 89.0565, "MEAN_ANOMALY": 271.0742, "EPHEMERIS_TYPE": 0, "CLASSIFICATION_TYPE": "U", "NORAD_CAT_ID": 40697, "ELEMENT_SET_NO": 999, "REV_AT_EPOCH": 54699, "BSTAR": 0.00017056, "MEAN_MOTION_DOT": 4.03e-06, "MEAN_MOTION_DDOT": 0}, "tle": {"line1": "1 40697U 15028A   25346.22166425  .00000403  00000+0  17056-3 0  9998", "line2": "2 40697  98.5686  58.7610 0001087  89.0565 271.0742 14.30813208546992"}}, "geometry": {"type": "Point", "coordinates": [113.00922407647079, -79.44170698646609]}}, {"type": "Feature", "properties": {"norad_id": 40701, "name": "GAOFEN-8", "group": "resource", "lat": -44.047474285844125, "lon": -22.89864879451396, "alt_km": 456.6436128015994, "timestamp": "2025-12-12T11:38:31.073467+00:00", "meta": {"OBJECT_NAME": "GAOFEN-8", "OBJECT_ID": "2015-030A", "EPOCH": "2025-12-12T04:25:35.030208", "MEAN_MOTION": 15.38510087, "ECCENTRICITY": 0.001158, "INCLINATION": 97.6913, "RA_OF_ASC_NODE": 164.2977, "ARG_OF_PERICENTER": 139.7657, "MEAN_ANOMALY": 220.4446, "EPHEMERIS_TYPE": 0, "CLASSIFICATION_TYPE": "U", "NORAD_CAT_ID": 40701, "ELEMENT_SET_NO": 999, "REV_AT_EPOCH": 58262, "BSTAR": 0.00044852, "MEAN_MOTION_DOT": 0.00017012, "MEAN_MOTION_DDOT": 0}, "tle": {"line1": "1 40701U 15030A   25346.18443322  .00017012  00000+0  44852-3 0  9994", "line2": "2 40701  97.6913 164.2977 0011580 139.7657 220.4446 15.38510087582621"}}, "geometry": {"type": "Point", "coordinates": [-22.89864879451396, -44.047474285844125]}}, {"type": "Feature", "properties": {"norad_id": 40718, "name": "CARBONITE 1 (CBNT-1)", "group": "resource", "lat": -26.746027814768436, "lon": -16.338846842058075, "alt_km": 617.2899133171713, "timestamp": "2025-12-12T11:38:31.073476+00:00", "meta": {"OBJECT_NAME": "CARBONITE 1 (CBNT-1)", "OBJECT_ID": "2015-032D", "EPOCH": "2025-12-12T04:14:00.587616", "MEAN_MOTION": 14.82738968, "ECCENTRICITY": 0.0014366, "INCLINATION": 97.6405, "RA_OF_ASC_NODE": 167.2452, "ARG_OF_PERICENTER": 183.482, "MEAN_ANOMALY": 176.6296, "EPHEMERIS_TYPE": 0, "CLASSIFICATION_TYPE": "U", "NORAD_CAT_ID": 40718, "ELEMENT_SET_NO": 999, "REV_AT_EPOCH": 56162, "BSTAR": 0.00044046, "MEAN_MOTION_DOT": 3.513e-05, "MEAN_MOTION_DDOT": 0}, "tle": {"line1": "1 40718U 15032D   25346.17639569  .00003513  00000+0  44046-3 0  9999", "line2": "2 40718  97.6405 167.2452 0014366 183.4820 176.6296 14.82738968561629"}}, "geometry": {"type": "Point", "coordinates": [-16.338846842058075, -26.746027814768436]}}, {"type": "Feature", "properties": {"norad_id": 40878, "name": "YAOGAN-27", "group": "resource", "lat": 56.30374589615278, "lon": -39.38890638487038, "alt_km": 1198.0231540664145, "timestamp": "2025-12-12T11:38:31.073487+00:00", "meta": {"OBJECT_NAME": "YAOGAN-27", "OBJECT_ID": "2015-040A", "EPOCH": "2025-12-12T05:52:34.658976", "MEAN_MOTION": 13.16061712, "ECCENTRICITY": 0.0007636, "INCLINATION": 100.1016, "RA_OF_ASC_NODE": 335.8869, "ARG_OF_PERICENTER": 288.1212, "MEAN_ANOMALY": 71.907, "EPHEMERIS_TYPE": 0, "CLASSIFICATION_TYPE": "U", "NORAD_CAT_ID": 40878, "ELEMENT_SET_NO": 999, "REV_AT_EPOCH": 49307, "BSTAR": 0.00080435, "MEAN_MOTION_DOT": 2.63e-06, "MEAN_MOTION_DDOT": 0}, "tle": {"line1": "1 40878U 15040A   25346.24484559  .00000263  00000+0  80435-3 0  9991", "line2": "2 40878 100.1016 335.8869 0007636 288.1212  71.9070 13.16061712493071"}}, "geometry": {"type": "Point", "coordinates": [-39.38890638487038, 56.30374589615278]}}, {"type": "Feature", "properties": {"norad_id": 40894, "name": "GAOFEN-9 01", "group": "resource", "lat": 51.02866074941922, "lon": -144.97867395203895, "alt_km": 618.0392501621718, "timestamp": "2025-12-12T11:38:31.073497+00:00", "meta": {"OBJECT_NAME": "GAOFEN-9 01", "OBJECT_ID": "2015-047A", "EPOCH": "2025-12-12T04:35:16.094400", "MEAN_MOTION": 14.82420509, "ECCENTRICITY": 0.0028431, "INCLINATION": 97.6546, "RA_OF_ASC_NODE": 25.1702, "ARG_OF_PERICENTER": 36.0895, "MEAN_ANOMALY": 324.2231, "EPHEMERIS_TYPE": 0, "CLASSIFICATION_TYPE": "U", "NORAD_CAT_ID": 40894, "ELEMENT_SET_NO": 999, "REV_AT_EPOCH": 55248, "BSTAR": 0.00026615, "MEAN_MOTION_DOT": 2.096e-05, "MEAN_MOTION_DDOT": 0}, "tle": {"line1": "1 40894U 15047A   25346.19115850  .00002096  00000+0  26615-3 0  9991", "line2": "2 40894  97.6546  25.1702 0028431  36.0895 324.2231 14.82420509552486"}}, "geometry": {"type": "Point", "coordinates": [-144.97867395203895, 51.02866074941922]}}, {"type": "Feature", "properties": {"norad_id": 41026, "name": "YAOGAN-28", "group": "resource", "lat": -60.29985283439687, "lon": -68.66774885058796, "alt_km": 503.44674450330695, "timestamp": "2025-12-12T11:38:31.073507+00:00", "meta": {"OBJECT_NAME": "YAOGAN-28", "OBJECT_ID": "2015-064A", "EPOCH": "2025-12-12T04:17:12.305760", "MEAN_MOTION": 15.24338122, "ECCENTRICITY": 0.0012393, "INCLINATION": 97.2804, "RA_OF_ASC_NODE": 123.9865, "ARG_OF_PERICENTER": 127.748, "MEAN_ANOMALY": 232.4882, "EPHEMERIS_TYPE": 0, "CLASSIFICATION_TYPE": "U", "NORAD_CAT_ID": 41026, "ELEMENT_SET_NO": 999, "REV_AT_EPOCH": 56216, "BSTAR": 0.00048784, "MEAN_MOTION_DOT": 0.00011899, "MEAN_MOTION_DDOT": 0}, "tle": {"line1": "1 41026U 15064A   25346.17861465  .00011899  00000+0  48784-3 0  9998", "line2": "2 41026  97.2804 123.9865 0012393 127.7480 232.4882 15.24338122562166"}}, "geometry": {"type": "Point", "coordinates": [-68.66774885058796, -60.29985283439687]}}, {"type": "Feature", "properties": {"norad_id": 41038, "name": "YAOGAN-29", "group": "resource", "lat": 15.066137467140956, "lon": 7.480016581739545, "alt_km": 621.0063024180117, "timestamp": "2025-12-12T11:38:31.073517+00:00", "meta": {"OBJECT_NAME": "YAOGAN-29", "OBJECT_ID": "2015-069A", "EPOCH": "2025-12-12T05:05:44.555136", "MEAN_MOTION": 14.82880091, "ECCENTRICITY": 2.6e-05, "INCLINATION": 98.022, "RA_OF_ASC_NODE": 9.382, "ARG_OF_PERICENTER": 321.568, "MEAN_ANOMALY": 38.5515, "EPHEMERIS_TYPE": 0, "CLASSIFICATION_TYPE": "U", "NORAD_CAT_ID": 41038, "ELEMENT_SET_NO": 999, "REV_AT_EPOCH": 54291, "BSTAR": 7.5148e-05, "MEAN_MOTION_DOT": 5.55e-06, "MEAN_MOTION_DDOT": 0}, "tle": {"line1": "1 41038U 15069A   25346.21232124  .00000555  00000+0  75148-4 0  9997", "line2": "2 41038  98.0220   9.3820 0000260 321.5680  38.5515 14.82880091542913"}}, "geometry": {"type": "Point", "coordinates": [7.480016581739545, 15.066137467140956]}}, {"type": "Feature", "properties": {"norad_id": 41167, "name": "KENT RIDGE 1", "group": "resource", "lat": -9.182903166875477, "lon": 70.238319021781, "alt_km": 499.3656344388446, "timestamp": "2025-12-12T11:38:31.073528+00:00", "meta": {"OBJECT_NAME": "KENT RIDGE 1", "OBJECT_ID": "2015-077B", "EPOCH": "2025-12-11T22:06:14.080320", "MEAN_MOTION": 15.21626182, "ECCENTRICITY": 0.0008513, "INCLINATION": 14.9787, "RA_OF_ASC_NODE": 217.2158, "ARG_OF_PERICENTER": 119.1546, "MEAN_ANOMALY": 240.9628, "EPHEMERIS_TYPE": 0, "CLASSIFICATION_TYPE": "U", "NORAD_CAT_ID": 41167, "ELEMENT_SET_NO": 999, "REV_AT_EPOCH": 55251, "BSTAR": 0.00026336, "MEAN_MOTION_DOT": 6.894e-05, "MEAN_MOTION_DDOT": 0}, "tle": {"line1": "1 41167U 15077B   25345.92099630  .00006894  00000+0  26336-3 0  9995", "line2": "2 41167  14.9787 217.2158 0008513 119.1546 240.9628 15.21626182552510"}}, "geometry": {"type": "Point", "coordinates": [70.238319021781, -9.182903166875477]}}, {"type": "Feature", "properties": {"norad_id": 41194, "name": "GAOFEN-4", "group": "resource", "lat": -0.15748809928061405, "lon": 1.7515865181473211, "alt_km": 35801.40942821283, "timestamp": "2025-12-12T11:38:31.073541+00:00", "meta": {"OBJECT_NAME": "GAOFEN-4", "OBJECT_ID": "2015-083A", "EPOCH": "2025-12-12T00:17:15.177408", "MEAN_MOTION": 1.00269789, "ECCENTRICITY": 0.000351, "INCLINATION": 0.1688, "RA_OF_ASC_NODE": 80.9919, "ARG_OF_PERICENTER": 106.4095, "MEAN_ANOMALY": 3.5726, "EPHEMERIS_TYPE": 0, "CLASSIFICATION_TYPE": "U", "NORAD_CAT_ID": 41194, "ELEMENT_SET_NO": 999, "REV_AT_EPOCH": 3665, "BSTAR": 0, "MEAN_MOTION_DOT": -3.26e-06, "MEAN_MOTION_DDOT": 0}, "tle": {"line1": "1 41194U 15083A   25346.01198122 -.00000326  00000+0  00000+0 0  9990", "line2": "2 41194   0.1688  80.9919 0003510 106.4095   3.5726  1.00269789 36659"}}, "geometry": {"type": "Point", "coordinates": [1.7515865181473211, -0.15748809928061405]}}, {"type": "Feature", "properties": {"norad_id": 41240, "name": "JASON-3", "group": "resource", "lat": -28.212250339454407, "lon": -7.839372535233608, "alt_km": 1312.9902468820237, "timestamp": "2025-12-12T11:38:31.073552+00:00", "meta": {"OBJECT_NAME": "JASON-3", "OBJECT_ID": "2016-002A", "EPOCH": "2025-12-12T03:05:32.990784", "MEAN_MOTION": 12.87626492, "ECCENTRICITY": 0.0007135, "INCLINATION": 66.0389, "RA_OF_ASC_NODE": 159.1085, "ARG_OF_PERICENTER": 270.7955, "MEAN_ANOMALY": 89.2246, "EPHEMERIS_TYPE": 0, "CLASSIFICATION_TYPE": "U", "NORAD_CAT_ID": 41240, "ELEMENT_SET_NO": 999, "REV_AT_EPOCH": 46316, "BSTAR": 9.7374e-05, "MEAN_MOTION_DOT": -3.8e-07, "MEAN_MOTION_DDOT": 0}, "tle": {"line1": "1 41240U 16002A   25346.12885406 -.00000038  00000+0  97374-4 0  9999", "line2": "2 41240  66.0389 159.1085 0007135 270.7955  89.2246 12.87626492463163"}}, "geometry": {"type": "Point", "coordinates": [-7.839372535233608, -28.212250339454407]}}]}